GLOBALSTAR M024         
1 25883U 99043A   24280.81225707 -.00000107  00000+0 -15051-2 0  9992
2 25883  52.0003 232.3232 0001926  36.0428 338.0756 11.10161476 86752
GLOBALSTAR M027         
1 25884U 99043B   24280.78946222 -.00000028  00000+0  13576-2 0  9992
2 25884  52.0222 303.1807 0021129 302.3409  57.5339 11.04370439113289
GLOBALSTAR M054         
1 25885U 99043C   24280.54184064 -.00000091  00000+0 -49274-3 0  9991
2 25885  52.0110 113.5924 0006745 103.2106 284.6667 11.39204752 90146
GLOBALSTAR M053         
1 25886U 99043D   24280.84893428 -.00000052  00000+0  47797-3 0  9990
2 25886  52.0006  45.8937 0003427  25.0063 142.5150 11.27659231 91007
GLOBALSTAR M058         
1 25907U 99049A   24280.73472383 -.00000057  00000+0  36368-3 0  9998
2 25907  51.9942  65.9507 0002598 134.5686 225.5361 11.93184152122491
GLOBALSTAR M050         
1 25908U 99049B   24280.56849066 -.00000090  00000+0 -19677-4 0  9999
2 25908  51.9973  93.0187 0008246 243.5710 160.0706 12.07441781117554
GLOBALSTAR M033         
1 25909U 99049C   24280.51231136  .00000024  00000+0  11095-2 0  9997
2 25909  51.9943 342.5337 0013214 103.6145 256.6174 12.20284323137500
GLOBALSTAR M055         
1 25910U 99049D   24280.51656243 -.00000036  00000+0  50253-3 0  9993
2 25910  52.0051   5.6124 0006652 327.2732  32.7707 12.29410474137084
